FLOCK 4G-5              
1 62663U 25009BG  26068.45638436  .00011278  00000+0  40688-3 0  9997
2 62663  97.4058 151.2478 0002094 314.5072  45.5996 15.28679529 63699
STARLINK-32959          
1 63569U 25076A   26068.09089922  .00042708  00000+0  15507-2 0  9990
2 63569  43.0013 329.0575 0001663 269.6925  90.3736 15.27618112 51691
